COSMOS 1933             
1 18958U 88020A   25362.25209681  .00006303  00000+0  31520-3 0  9995
2 18958  82.5134 321.5503 0006510  88.0916 272.1063 15.17244173 39399
SL-3 R/B                
1 19046U 88032B   25362.21221440  .00007044  00000+0  33734-3 0  9992
2 19046  97.5098 340.8284 0028145 120.8648 239.5361 15.18903197 41253
SL-16 R/B               
1 19120U 88039B   25362.03759360 -.00000083  00000+0 -16630-4 0  9994
2 19120  71.0125 220.0531 0019540  90.0996 270.2369 14.19599752948211
COSMOS 1953             
1 19210U 88050A   25351.75027580  .00004793  00000+0  17925-3 0  9993
2 19210  82.5093 240.5536 0013540  56.0210 304.2313 15.26995692 25270
SL-8 R/B                
1 19257U 88053B   25362.13172958  .00000316  00000+0  11082-3 0  9996
2 19257  74.0464 244.3526 0018979  82.6764  68.6047 14.38868918966305
COSMOS 1975             
1 19573U 88093A   25362.25021077  .00010365  00000+0  39254-3 0  9995
2 19573  82.5198 189.2985 0012886  64.2116 296.0450 15.26700402  8503
SL-14 R/B               
1 19574U 88093B   25362.33310068  .00000742  00000+0  82861-4 0  9997
2 19574  82.5318 109.0348 0019214 274.5683 139.2751 14.85567187990448
SL-16 R/B               
1 19650U 88102B   25362.28083046 -.00000033  00000+0  76884-5 0  9993
2 19650  71.0008 301.7432 0012142 125.1856 235.0406 14.16142845916784
INTERCOSMOS 24          
1 20261U 89080A   25362.31527679  .00000869  00000+0  24659-3 0  9995
2 20261  82.6059 150.8271 1189031  98.4051 275.3326 12.59465237657816
SL-14 R/B               
1 20262U 89080C   25362.10524649  .00000386  00000+0  11359-3 0  9994
2 20262  82.5912 219.1561 1230341 348.4759   9.0340 12.50425324651208
DELTA 1 R/B             
1 20323U 89089B   25362.16007503  .00000488  00000+0  12961-3 0  9995
2 20323  97.0742 215.9530 0068863 349.9174  10.0638 14.50585424885360
ARIANE 40 R/B           
1 20443U 90005H   25362.16693884  .00000373  00000+0  13240-3 0  9995
2 20443  98.3223  59.9075 0011096  63.9865 296.2465 14.39810133882512
